[{"OBJECT_NAME":"HAWK-6A","OBJECT_ID":"2023-011D","EPOCH":"2026-03-04T18:01:14.589984","MEAN_MOTION":15.21824761,"ECCENTRICITY":0.00028812,"INCLINATION":40.4973,"RA_OF_ASC_NODE":239.2145,"ARG_OF_PERICENTER":335.7521,"MEAN_ANOMALY":24.3152,"EPHEMERIS_TYPE":0,"CLASSIFICATION_TYPE":"U","NORAD_CAT_ID":55327,"ELEMENT_SET_NO":999,"REV_AT_EPOCH":17193,"BSTAR":0.0004031273,"MEAN_MOTION_DOT":9.168e-5,"MEAN_MOTION_DDOT":0},{"OBJECT_NAME":"HAWK-7A","OBJECT_ID":"2023-054P","EPOCH":"2026-03-05T05:32:07.847232","MEAN_MOTION":15.2616751,"ECCENTRICITY":0.00044272,"INCLINATION":97.2842,"RA_OF_ASC_NODE":314.2125,"ARG_OF_PERICENTER":59.7909,"MEAN_ANOMALY":300.3767,"EPHEMERIS_TYPE":0,"CLASSIFICATION_TYPE":"U","NORAD_CAT_ID":56191,"ELEMENT_SET_NO":999,"REV_AT_EPOCH":16116,"BSTAR":0.00034432151,"MEAN_MOTION_DOT":8.832e-5,"MEAN_MOTION_DDOT":0},{"OBJECT_NAME":"HAWK-7B","OBJECT_ID":"2023-054R","EPOCH":"2026-03-05T05:32:00.155040","MEAN_MOTION":15.26129414,"ECCENTRICITY":0.00038535,"INCLINATION":97.2875,"RA_OF_ASC_NODE":312.4367,"ARG_OF_PERICENTER":69.1927,"MEAN_ANOMALY":290.9724,"EPHEMERIS_TYPE":0,"CLASSIFICATION_TYPE":"U","NORAD_CAT_ID":56193,"ELEMENT_SET_NO":999,"REV_AT_EPOCH":16116,"BSTAR":0.00038846593,"MEAN_MOTION_DOT":9.963e-5,"MEAN_MOTION_DDOT":0},{"OBJECT_NAME":"HAWK-7C","OBJECT_ID":"2023-054Y","EPOCH":"2026-03-05T05:31:50.200896","MEAN_MOTION":15.26129606,"ECCENTRICITY":0.0003919,"INCLINATION":97.2846,"RA_OF_ASC_NODE":313.2397,"ARG_OF_PERICENTER":61.5047,"MEAN_ANOMALY":298.6586,"EPHEMERIS_TYPE":0,"CLASSIFICATION_TYPE":"U","NORAD_CAT_ID":56200,"ELEMENT_SET_NO":999,"REV_AT_EPOCH":16116,"BSTAR":0.00034830515,"MEAN_MOTION_DOT":8.924e-5,"MEAN_MOTION_DDOT":0}]
