HAWK-6A                 
1 55327U 23011D   26063.75086331  .00009168  00000+0  40313-3 0  9996
2 55327  40.4973 239.2145 0002881 335.7521  24.3152 15.21824761171937
HAWK-7A                 
1 56191U 23054P   26064.23064638  .00008832  00000+0  34432-3 0  9995
2 56191  97.2842 314.2125 0004427  59.7909 300.3767 15.26167510161165
HAWK-7B                 
1 56193U 23054R   26064.23055735  .00009963  00000+0  38847-3 0  9995
2 56193  97.2875 312.4367 0003853  69.1927 290.9724 15.26129414161166
HAWK-7C                 
1 56200U 23054Y   26064.23044214  .00008924  00000+0  34831-3 0  9999
2 56200  97.2846 313.2397 0003919  61.5047 298.6586 15.26129606161161
